[
    {
        "Altitude(m)": 622200.0945099537,
        "Argument of Periapsis(deg)": 0.0,
        "Eccentricity": 0.0,
        "Inclination(deg)": 60.0,
        "Latitude(deg)": -52.16250320051775,
        "Longitude(deg)": 157.36064077416435,
        "Mean Anomaly(deg)": -65.45449999999998,
        "RAAN(deg)": 305.0,
        "Satellite Name": "Test1 1360",
        "Satellite Number": 1360,
        "Semi-Major Axis(m)": 6980739.136638005,
        "Time(s)": 0
    },
    {
        "Altitude(m)": 622058.262645739,
        "Argument of Periapsis(deg)": 0.00010418945913296404,
        "Eccentricity": 0.0,
        "Inclination(deg)": 60.0,
        "Latitude(deg)": -51.79925402331296,
        "Longitude(deg)": 158.12869952459002,
        "Mean Anomaly(deg)": -64.83439385453813,
        "RAAN(deg)": 304.99957995086027,
        "Satellite Name": "Test1 1360",
        "Satellite Number": 1360,
        "Semi-Major Axis(m)": 6980739.136638005,
        "Time(s)": 10
    }
]